{"type": "FeatureCollection", "features": [ {"type": "Feature", "properties": {"norad_id": 66484, "name": "STARLINK-35371", "group": "last-30-days", "lat": 28.563599734670763, "lon": 110.12664341270825, "alt_km": 410.13497531726443, "timestamp": "2025-12-12T03:50:51.176066+00:00", "meta": {"OBJECT_NAME": "STARLINK-35371", "OBJECT_ID": "2025-262AE", "EPOCH": "2025-12-11T15:17:24.038592", "MEAN_MOTION": 15.50644165, "ECCENTRICITY": 0.00013158, "INCLINATION": 43.0001, "RA_OF_ASC_NODE": 77.4416, "ARG_OF_PERICENTER": 288.2599, "MEAN_ANOMALY": 71.8118, "EPHEMERIS_TYPE": 0, "CLASSIFICATION_TYPE": "U", "NORAD_CAT_ID": 66484, "ELEMENT_SET_NO": 999, "REV_AT_EPOCH": 539, "BSTAR": 0.0028524623, "MEAN_MOTION_DOT": 0.00171103, "MEAN_MOTION_DDOT": 0}, "tle": {"line1": "1 66484U 25262AE  25345.63708378  .00171103  00000+0  28525-2 0  9992", "line2": "2 66484  43.0001  77.4416 0001315 288.2599  71.8118 15.50644165  5390"}}, "geometry": {"type": "Point", "coordinates": [110.12664341270825, 28.563599734670763]}}, {"type": "Feature", "properties": {"norad_id": 66485, "name": "STARLINK-34774", "group": "last-30-days", "lat": -17.452680651696657, "lon": -31.531167335394237, "alt_km": 446.11158131523644, "timestamp": "2025-12-12T03:50:51.176077+00:00", "meta": {"OBJECT_NAME": "STARLINK-34774", "OBJECT_ID": "2025-263A", "EPOCH": "2025-12-11T14:00:01.999872", "MEAN_MOTION": 15.40769534, "ECCENTRICITY": 0.00019928, "INCLINATION": 43.0008, "RA_OF_ASC_NODE": 132.0773, "ARG_OF_PERICENTER": 289.8269, "MEAN_ANOMALY": 312.3679, "EPHEMERIS_TYPE": 0, "CLASSIFICATION_TYPE": "U", "NORAD_CAT_ID": 66485, "ELEMENT_SET_NO": 999, "REV_AT_EPOCH": 545, "BSTAR": -0.0041640948, "MEAN_MOTION_DOT": -0.00170818, "MEAN_MOTION_DDOT": 0}, "tle": {"line1": "1 66485U 25263A   25345.58335648 -.00170818  00000+0 -41641-2 0  9992", "line2": "2 66485  43.0008 132.0773 0001992 289.8269 312.3679 15.40769534  5453"}}, "geometry": {"type": "Point", "coordinates": [-31.531167335394237, -17.452680651696657]}}, {"type": "Feature", "properties": {"norad_id": 66486, "name": "STARLINK-34844", "group": "last-30-days", "lat": -41.065707498994215, "lon": 59.32658695909723, "alt_km": 417.85662828689965, "timestamp": "2025-12-12T03:50:51.176087+00:00", "meta": {"OBJECT_NAME": "STARLINK-34844", "OBJECT_ID": "2025-263B", "EPOCH": "2025-12-11T14:00:01.999872", "MEAN_MOTION": 15.50627361, "ECCENTRICITY": 0.00013185, "INCLINATION": 43.0003, "RA_OF_ASC_NODE": 131.9326, "ARG_OF_PERICENTER": 272.2051, "MEAN_ANOMALY": 28.9395, "EPHEMERIS_TYPE": 0, "CLASSIFICATION_TYPE": "U", "NORAD_CAT_ID": 66486, "ELEMENT_SET_NO": 999, "REV_AT_EPOCH": 540, "BSTAR": -0.0029059336, "MEAN_MOTION_DOT": -0.00167509, "MEAN_MOTION_DDOT": 0}, "tle": {"line1": "1 66486U 25263B   25345.58335648 -.00167509  00000+0 -29059-2 0  9995", "line2": "2 66486  43.0003 131.9326 0001318 272.2051  28.9395 15.50627361  5400"}}, "geometry": {"type": "Point", "coordinates": [59.32658695909723, -41.065707498994215]}}, {"type": "Feature", "properties": {"norad_id": 66487, "name": "STARLINK-34733", "group": "last-30-days", "lat": -42.112620342703174, "lon": 52.62412235349344, "alt_km": 429.4537421436271, "timestamp": "2025-12-12T03:50:51.176098+00:00", "meta": {"OBJECT_NAME": "STARLINK-34733", "OBJECT_ID": "2025-263C", "EPOCH": "2025-12-11T14:00:01.999872", "MEAN_MOTION": 15.48981186, "ECCENTRICITY": 0.00014407, "INCLINATION": 43.0004, "RA_OF_ASC_NODE": 131.9304, "ARG_OF_PERICENTER": 272.311, "MEAN_ANOMALY": 29.6701, "EPHEMERIS_TYPE": 0, "CLASSIFICATION_TYPE": "U", "NORAD_CAT_ID": 66487, "ELEMENT_SET_NO": 999, "REV_AT_EPOCH": 545, "BSTAR": -0.042556684, "MEAN_MOTION_DOT": -0.02094616, "MEAN_MOTION_DDOT": 0}, "tle": {"line1": "1 66487U 25263C   25345.58335648 -.02094616  00000+0 -42557-1 0  9993", "line2": "2 66487  43.0004 131.9304 0001440 272.3110  29.6701 15.48981186  5450"}}, "geometry": {"type": "Point", "coordinates": [52.62412235349344, -42.112620342703174]}}, {"type": "Feature", "properties": {"norad_id": 66488, "name": "STARLINK-35515", "group": "last-30-days", "lat": -40.03605452469861, "lon": 64.17821542089965, "alt_km": 417.80463131540273, "timestamp": "2025-12-12T03:50:51.176108+00:00", "meta": {"OBJECT_NAME": "STARLINK-35515", "OBJECT_ID": "2025-263D", "EPOCH": "2025-12-11T14:00:01.999872", "MEAN_MOTION": 15.50617536, "ECCENTRICITY": 0.00013101, "INCLINATION": 43.0004, "RA_OF_ASC_NODE": 131.9236, "ARG_OF_PERICENTER": 268.8663, "MEAN_ANOMALY": 36.1115, "EPHEMERIS_TYPE": 0, "CLASSIFICATION_TYPE": "U", "NORAD_CAT_ID": 66488, "ELEMENT_SET_NO": 999, "REV_AT_EPOCH": 545, "BSTAR": -0.0025545831, "MEAN_MOTION_DOT": -0.00147617, "MEAN_MOTION_DDOT": 0}, "tle": {"line1": "1 66488U 25263D   25345.58335648 -.00147617  00000+0 -25546-2 0  9992", "line2": "2 66488  43.0004 131.9236 0001310 268.8663  36.1115 15.50617536  5454"}}, "geometry": {"type": "Point", "coordinates": [64.17821542089965, -40.03605452469861]}}, {"type": "Feature", "properties": {"norad_id": 66489, "name": "STARLINK-35696", "group": "last-30-days", "lat": -39.442339867523266, "lon": 66.5602430988977, "alt_km": 417.7559905152566, "timestamp": "2025-12-12T03:50:51.176118+00:00", "meta": {"OBJECT_NAME": "STARLINK-35696", "OBJECT_ID": "2025-263E", "EPOCH": "2025-12-11T14:00:01.999872", "MEAN_MOTION": 15.50615456, "ECCENTRICITY": 0.00014722, "INCLINATION": 43.0003, "RA_OF_ASC_NODE": 131.918, "ARG_OF_PERICENTER": 254.3189, "MEAN_ANOMALY": 52.5734, "EPHEMERIS_TYPE": 0, "CLASSIFICATION_TYPE": "U", "NORAD_CAT_ID": 66489, "ELEMENT_SET_NO": 999, "REV_AT_EPOCH": 545, "BSTAR": -0.0023097936, "MEAN_MOTION_DOT": -0.00133731, "MEAN_MOTION_DDOT": 0}, "tle": {"line1": "1 66489U 25263E   25345.58335648 -.00133731  00000+0 -23098-2 0  9995", "line2": "2 66489  43.0003 131.9180 0001472 254.3189  52.5734 15.50615456  5452"}}, "geometry": {"type": "Point", "coordinates": [66.5602430988977, -39.442339867523266]}}, {"type": "Feature", "properties": {"norad_id": 66490, "name": "STARLINK-35693", "group": "last-30-days", "lat": -41.43662213651012, "lon": 19.941500067090004, "alt_km": 444.7575130105952, "timestamp": "2025-12-12T03:50:51.176131+00:00", "meta": {"OBJECT_NAME": "STARLINK-35693", "OBJECT_ID": "2025-263F", "EPOCH": "2025-12-11T14:00:01.999872", "MEAN_MOTION": 15.4341361, "ECCENTRICITY": 0.00013664, "INCLINATION": 43.0011, "RA_OF_ASC_NODE": 131.9635, "ARG_OF_PERICENTER": 273.139, "MEAN_ANOMALY": 15.674, "EPHEMERIS_TYPE": 0, "CLASSIFICATION_TYPE": "U", "NORAD_CAT_ID": 66490, "ELEMENT_SET_NO": 999, "REV_AT_EPOCH": 545, "BSTAR": -0.04273917, "MEAN_MOTION_DOT": -0.01767203, "MEAN_MOTION_DDOT": 0}, "tle": {"line1": "1 66490U 25263F   25345.58335648 -.01767203  00000+0 -42739-1 0  9997", "line2": "2 66490  43.0011 131.9635 0001366 273.1390  15.6740 15.43413610  5450"}}, "geometry": {"type": "Point", "coordinates": [19.941500067090004, -41.43662213651012]}}, {"type": "Feature", "properties": {"norad_id": 66491, "name": "STARLINK-35663", "group": "last-30-days", "lat": -37.43966001364728, "lon": 73.27877678654274, "alt_km": 417.4463108658538, "timestamp": "2025-12-12T03:50:51.176141+00:00", "meta": {"OBJECT_NAME": "STARLINK-35663", "OBJECT_ID": "2025-263G", "EPOCH": "2025-12-11T14:00:01.999872", "MEAN_MOTION": 15.50467701, "ECCENTRICITY": 0.00013998, "INCLINATION": 43.0004, "RA_OF_ASC_NODE": 131.9033, "ARG_OF_PERICENTER": 321.135, "MEAN_ANOMALY": 351.4949, "EPHEMERIS_TYPE": 0, "CLASSIFICATION_TYPE": "U", "NORAD_CAT_ID": 66491, "ELEMENT_SET_NO": 999, "REV_AT_EPOCH": 545, "BSTAR": 0.0010216508, "MEAN_MOTION_DOT": 0.00059815, "MEAN_MOTION_DDOT": 0}, "tle": {"line1": "1 66491U 25263G   25345.58335648  .00059815  00000+0  10217-2 0  9995", "line2": "2 66491  43.0004 131.9033 0001399 321.1350 351.4949 15.50467701  5451"}}, "geometry": {"type": "Point", "coordinates": [73.27877678654274, -37.43966001364728]}}, {"type": "Feature", "properties": {"norad_id": 66492, "name": "STARLINK-35673", "group": "last-30-days", "lat": -31.997751413185096, "lon": -9.206432941911528, "alt_km": 446.2337299311339, "timestamp": "2025-12-12T03:50:51.176152+00:00", "meta": {"OBJECT_NAME": "STARLINK-35673", "OBJECT_ID": "2025-263H", "EPOCH": "2025-12-11T14:00:01.999872", "MEAN_MOTION": 15.40660283, "ECCENTRICITY": 0.00014827, "INCLINATION": 43.0004, "RA_OF_ASC_NODE": 132.0135, "ARG_OF_PERICENTER": 276.9576, "MEAN_ANOMALY": 350.1409, "EPHEMERIS_TYPE": 0, "CLASSIFICATION_TYPE": "U", "NORAD_CAT_ID": 66492, "ELEMENT_SET_NO": 999, "REV_AT_EPOCH": 545, "BSTAR": 0.00074648988, "MEAN_MOTION_DOT": 0.00030965, "MEAN_MOTION_DDOT": 0}, "tle": {"line1": "1 66492U 25263H   25345.58335648  .00030965  00000+0  74649-3 0  9991", "line2": "2 66492  43.0004 132.0135 0001482 276.9576 350.1409 15.40660283  5453"}}, "geometry": {"type": "Point", "coordinates": [-9.206432941911528, -31.997751413185096]}}, {"type": "Feature", "properties": {"norad_id": 66493, "name": "STARLINK-35597", "group": "last-30-days", "lat": -35.83178613874763, "lon": 77.7252923770656, "alt_km": 417.6836094700593, "timestamp": "2025-12-12T03:50:51.176162+00:00", "meta": {"OBJECT_NAME": "STARLINK-35597", "OBJECT_ID": "2025-263J", "EPOCH": "2025-12-11T14:00:01.999872", "MEAN_MOTION": 15.50623803, "ECCENTRICITY": 0.00013786, "INCLINATION": 43.0003, "RA_OF_ASC_NODE": 131.8936, "ARG_OF_PERICENTER": 265.6363, "MEAN_ANOMALY": 50.8461, "EPHEMERIS_TYPE": 0, "CLASSIFICATION_TYPE": "U", "NORAD_CAT_ID": 66493, "ELEMENT_SET_NO": 999, "REV_AT_EPOCH": 545, "BSTAR": -0.0027844014, "MEAN_MOTION_DOT": -0.00160638, "MEAN_MOTION_DDOT": 0}, "tle": {"line1": "1 66493U 25263J   25345.58335648 -.00160638  00000+0 -27844-2 0  9999", "line2": "2 66493  43.0003 131.8936 0001378 265.6363  50.8461 15.50623803  5452"}}, "geometry": {"type": "Point", "coordinates": [77.7252923770656, -35.83178613874763]}}]}